SatCatId,ObjectName,LaunchYear,OrbitalPeriod,LaunchMass,StatusCode,Inclination,Status,UcsData,OrbitClassEstimated,LaunchSiteCountry,Owner,UseType,Purpose,LaunchVehicleClass,TLE1,TLE2,MeanMotion,Eccentricity,OrbitClass
4327,SERT 2,1970,105.99,-1.0,UNK,99.19,Inactive,0,LEO,USA,USA,Unknown,Unknown,Unknown,1 04327U 70009A   24198.51925008  .00000019  00000+0  81721-4 0  9998,2 04327  99.1875 166.0365 0003855 262.9066 206.0166 13.58624185698250,13.58624185,0.0003855,LEO
20712,CRRES,1990,579.88,-1.0,UNK,17.65,Inactive,0,MEO,USA,USA,Unknown,Unknown,Unknown,1 20712U 90065A   24198.22021263  .00001055  00000+0  82175-3 0  9990,2 20712  17.6469 245.2744 7090102  83.0843 345.9922  2.48326681292210,2.48326681,0.7090102,MEO
28902,TELKOM 2,2005,1452.4,-1.0,-,2.96,Inactive,0,GSO,French Guiana,Indonesia,Unknown,Unknown,Unknown,1 28902U 05046A   24198.53908007  .00000092  00000+0  00000+0 0  9991,2 28902   2.9543  84.6040 0002761 155.4160 113.0628  0.99146023 68285,0.99146023,0.0002761,GSO
4331,OPS 0054 (DMSP 5A F1),1970,100.44,-1.0,-,98.93,Inactive,0,LEO,USA,USA,Unknown,Unknown,Unknown,1 04331U 70012A   24198.39510271  .00000628  00000+0  23884-3 0  9996,2 04331  98.9305 339.3313 0057398 219.1057 140.5971 14.33700413836728,14.33700413,0.0057398,LEO
28909,GONETS-D1M 1,2005,114.72,-1.0,UNK,82.47,Inactive,0,LEO,Russia,Russia/USSR,Unknown,Unknown,Unknown,1 28909U 05048B   24198.55984522  .00000038  00000+0  16861-3 0  9994,2 28909  82.4672  38.0482 0007006 289.1579 124.3680 12.55251256850649,12.55251256,0.0007006,LEO
28911,INSAT-4A,2005,1451.66,-1.0,-,4.63,Inactive,0,GSO,French Guiana,India,Unknown,Unknown,Unknown,1 28911U 05049A   24198.25406061  .00000091  00000+0  00000+0 0  9995,2 28911   4.6329  80.2729 0005489  82.3480 103.1239  0.99196810 38470,0.9919681,0.0005489,GSO
20720,COSMOS 2088,1990,116.06,-1.0,UNK,73.6,Inactive,0,LEO,Russia,Russia/USSR,Unknown,Unknown,Unknown,1 20720U 90066A   24198.62173351 -.00000005  00000+0  90099-4 0  9990,2 20720  73.5971 249.8758 0025393 183.8914 294.4607 12.40766132538251,12.40766132,0.0025393,LEO
23657,SICH-1,1995,96.64,-1.0,UNK,82.53,Inactive,0,LEO,Russia,Ukraine,Unknown,Unknown,Tsiklon,1 23657U 95046A   24198.54826881  .00003826  00000+0  39146-3 0  9997,2 23657  82.5267 347.6968 0021047 145.7978 214.4601 14.90134460561454,14.9013446,0.0021047,LEO
28915,COSMOS 2419 [GLONASS-M],2005,675.71,-1.0,-,65.92,Inactive,0,MEO,Kazakhstan,Russia/USSR,Unknown,Unknown,Unknown,1 28915U 05050A   24194.84780090 -.00000065  00000+0  00000+0 0  9991,2 28915  65.9177 339.7114 0013783 336.9267  28.8568  2.13108409144361,2.13108409,0.0013783,MEO
20724,NAVSTAR 20 (USA 63),1990,769.29,-1.0,-,54.37,Inactive,0,MEO,USA,USA,Unknown,Unknown,Unknown,1 20724U 90068A   24198.25939645 -.00000041  00000+0  00000+0 0  9999,2 20724  54.3692  99.0018 0038390 317.7921 225.2325  1.87186100236785,1.871861,0.003839,MEO
28916,COSMOS 2418 [GLONASS-M],2005,675.72,-1.0,-,65.94,Inactive,0,MEO,Kazakhstan,Russia/USSR,Unknown,Unknown,Unknown,1 28916U 05050B   24198.59015919 -.00000062  00000+0  00000+0 0  9996,2 28916  65.9377 339.7453 0010065 279.8015  90.6616  2.13106791144336,2.13106791,0.0010065,MEO
28917,COSMOS 2417 [GLONASS],2005,675.73,-1.0,-,65.92,Inactive,0,MEO,Kazakhstan,Russia/USSR,Unknown,Unknown,Unknown,1 28917U 05050C   24198.55528828 -.00000062  00000+0  00000+0 0  9991,2 28917  65.9189 339.6177 0017116  94.8385 328.2015  2.13104003144303,2.13104003,0.0017116,MEO
28922,GIOVE-A,2005,850.41,-1.0,-,58.84,Inactive,0,MEO,Kazakhstan,ESA,Unknown,Unknown,Unknown,1 28922U 05051A   24198.57676087 -.00000062  00000+0  00000+0 0  9991,2 28922  58.8441  12.3944 0024756 136.9796  43.6057  1.69329966114847,1.69329966,0.0024756,MEO
20735,COSMOS 2090,1990,113.8,-1.0,UNK,82.57,Inactive,0,LEO,Russia,Russia/USSR,Unknown,Unknown,Unknown,1 20735U 90070A   24198.56923705  .00000051  00000+0  21500-3 0  9990,2 20735  82.5680   2.4826 0013748 217.0397 215.3208 12.65334167567324,12.65334167,0.0013748,LEO
12544,METEOSAT-2,1981,1458.57,-1.0,-,11.46,Inactive,0,GSO,French Guiana,ESA,Unknown,Unknown,Unknown,1 12544U 81057A   24198.53185719 -.00000137  00000+0  00000+0 0  9990,2 12544  11.4609 324.0015 0026008   3.3321 346.9260  0.98726309116925,0.98726309,0.0026008,GSO
4353,NATO 2A,1970,1436.1,-1.0,-,2.14,Inactive,0,GSO,USA,NATO,Unknown,Unknown,Unknown,1 04353U 70021A   24198.51233517 -.00000099  00000+0  00000+0 0  9993,2 04353   2.1411 284.2534 0002993 234.3277 220.5212  1.00271805118744,1.00271805,0.0002993,GSO
12545,APPLE,1981,1439.68,-1.0,-,8.64,Inactive,0,GSO,French Guiana,India,Unknown,Unknown,Unknown,1 12545U 81057B   24197.86632785 -.00000058  00000+0  00000+0 0  9998,2 12545   8.6434 302.8087 0029711 204.5418 178.5988  1.00022014115379,1.00022014,0.0029711,GSO
12546,CAT 3,1981,321.63,-1.0,-,10.15,Inactive,0,MEO,French Guiana,ESA,Unknown,Unknown,Unknown,1 12546U 81057C   24198.16159125  .00000847  00000+0  38675-3 0  9993,2 12546  10.1496 131.9309 5666370 254.5552  38.9246  4.47719382383560,4.47719382,0.566637,MEO
20736,COSMOS 2091,1990,114.06,-1.0,UNK,82.58,Inactive,0,LEO,Russia,Russia/USSR,Unknown,Unknown,Unknown,1 20736U 90070B   24198.59319409  .00000029  00000+0  10344-3 0  9993,2 20736  82.5764  55.4345 0002484 257.9116 162.3383 12.62531498563907,12.62531498,0.0002484,LEO
20737,COSMOS 2092,1990,113.99,-1.0,UNK,82.57,Inactive,0,LEO,Russia,Russia/USSR,Unknown,Unknown,Unknown,1 20737U 90070C   24198.61362900  .00000050  00000+0  21646-3 0  9992,2 20737  82.5681  34.2711 0003448 287.8096 137.4213 12.63319612564895,12.63319612,0.0003448,LEO
20738,COSMOS 2093,1990,113.92,-1.0,UNK,82.57,Inactive,0,LEO,Russia,Russia/USSR,Unknown,Unknown,Unknown,1 20738U 90070D   24198.61657515  .00000045  00000+0  18601-3 0  9993,2 20738  82.5744  29.5986 0007845 259.8457 162.7683 12.64065893565862,12.64065893,0.0007845,LEO
20739,COSMOS 2094,1990,113.86,-1.0,UNK,82.58,Inactive,0,LEO,Russia,Russia/USSR,Unknown,Unknown,Unknown,1 20739U 90070E   24198.61189885  .00000040  00000+0  15890-3 0  9996,2 20739  82.5759  20.9843 0010655 241.6056 183.4837 12.64726179566664,12.64726179,0.0010655,LEO
20740,COSMOS 2095,1990,113.73,-1.0,UNK,82.58,Inactive,0,LEO,Russia,Russia/USSR,Unknown,Unknown,Unknown,1 20740U 90070F   24198.52350260  .00000039  00000+0  15131-3 0  9991,2 20740  82.5750 358.0749 0019583 172.1442 249.4186 12.66111932568369,12.66111932,0.0019583,LEO
12553,NOAA 7,1981,101.58,-1.0,-,98.89,Inactive,0,LEO,USA,USA,Unknown,Unknown,Unknown,1 12553U 81059A   24198.13185775  .00000129  00000+0  85603-4 0  9997,2 12553  98.8918 257.4804 0012481 110.6211 249.6304 14.17543005225411,14.17543005,0.0012481,LEO
4362,NIMBUS 4,1970,107.09,-1.0,-,99.95,Inactive,0,LEO,USA,USA,Unknown,Unknown,Unknown,1 04362U 70025A   24198.38049366 -.00000017  00000+0  46621-4 0  9993,2 04362  99.9509 115.6317 0006737 266.2425 202.0821 13.44692531662650,13.44692531,0.0006737,LEO
4363,TOPO 1,1970,106.93,-1.0,UNK,99.9,Inactive,0,LEO,USA,USA,Unknown,Unknown,Thorad,1 04363U 70025B   24198.22920810 -.00000023  00000+0  35787-4 0  9997,2 04363  99.9008 110.1524 0001186 280.7271 233.1230 13.46649271667309,13.46649271,0.0001186,LEO
28931,ALOS (DAICHI),2006,98.23,-1.0,-,98.04,Inactive,0,LEO,Japan,Japan,Unknown,Unknown,Unknown,1 28931U 06002A   24198.43976861  .00003007  00000+0  55739-3 0  9990,2 28931  98.0373 150.8786 0002489  74.0719 286.0759 14.65985952985262,14.65985952,0.0002489,LEO
28937,HIMAWARI-7 (MTSAT-2),2006,1453.47,-1.0,-,3.97,Inactive,0,GSO,Japan,Japan,Unknown,Unknown,Unknown,1 28937U 06004A   24198.58184328  .00000056  00000+0  00000+0 0  9991,2 28937   3.9682  81.4319 0006508 126.7741  15.3938  0.99073432 67281,0.99073432,0.0006508,GSO
4369,COSMOS 332,1970,99.15,-1.0,UNK,74.04,Inactive,0,LEO,Russia,Russia/USSR,Unknown,Unknown,Unknown,1 04369U 70028A   24198.31805767  .00000612  00000+0  15723-3 0  9999,2 04369  74.0360 146.9502 0006285 198.2713 161.8224 14.52345082866315,14.52345082,0.0006285,LEO
37137,COSMOS 2466 [GLONASS-M],2010,675.7,-1.0,-,63.9,Inactive,0,MEO,Kazakhstan,Russia/USSR,Unknown,Unknown,Unknown,1 37137U 10041A   24194.36794341  .00000076  00000+0  00000+0 0  9995,2 37137  63.8977 214.2585 0017276 182.0269 250.8877  2.13113093107829,2.13113093,0.0017276,MEO
37138,COSMOS 2465 [GLONASS-M],2010,675.74,-1.0,-,63.91,Inactive,0,MEO,Kazakhstan,Russia/USSR,Unknown,Unknown,Unknown,1 37138U 10041B   24197.98000887  .00000117  00000+0  00000+0 0  9998,2 37138  63.9138 214.2782 0040497 179.7766 177.0801  2.13098360107911,2.1309836,0.0040497,MEO
37139,COSMOS 2464 [GLONASS-M],2010,675.74,1415.0,-,63.92,Inactive,1,MEO,Kazakhstan,Russia/USSR,Commercial/Military,Navigation (Global or Regional Positioning),Proton,1 37139U 10041C   24198.37754135  .00000119  00000+0  00000+0 0  9997,2 37139  63.9201 214.2848 0031701   8.2632 145.0605  2.13100262107958,2.13100262,0.0031701,MEO
12564,EKRAN 7,1981,1436.92,-1.0,-,8.18,Inactive,0,GSO,Kazakhstan,Russia/USSR,Unknown,Unknown,Proton,1 12564U 81061A   24197.86545762 -.00000056  00000+0  00000+0 0  9990,2 12564   8.1834 299.4258 0003327  90.7443 290.9941  1.00214373122476,1.00214373,0.0003327,GSO
4376,INTELSAT 3-F7,1970,1436.28,-1.0,-,0.65,Inactive,0,GSO,USA,INTELSAT,Unknown,Unknown,Unknown,1 04376U 70032A   24198.18560138  .00000003  00000+0  00000+0 0  9999,2 04376   0.6453 115.9100 0000592 243.7158   0.3737  1.00259014 40324,1.00259014,5.92e-05,GEO
20762,THOR I (MARCOPOLO 2),1990,1451.43,-1.0,-,14.21,Inactive,0,GSO,USA,Norway,Unknown,Unknown,Unknown,1 20762U 90074A   24198.24166191 -.00000228  00000+0  00000+0 0  9992,2 20762  14.2076  11.7607 0004224 166.2915  11.5063  0.99212264 39253,0.99212264,0.0004224,GSO
4382,DFH 1,1970,109.83,-1.0,UNK,68.42,Inactive,0,LEO,PRC,China,Unknown,Unknown,Unknown,1 04382U 70034A   24198.59646532  .00000636  00000+0  10171-3 0  9992,2 04382  68.4165  48.4268 1043525 250.7232  97.8214 13.11137499553702,13.11137499,0.1043525,LEO
